[{"OBJECT_NAME":"YUNHAI-2 01C","OBJECT_ID":"2018-112C","EPOCH":"2026-03-09T23:40:43.339008","MEAN_MOTION":14.28951205,"ECCENTRICITY":5.385e-5,"INCLINATION":50.0116,"RA_OF_ASC_NODE":48.4892,"ARG_OF_PERICENTER":172.1642,"MEAN_ANOMALY":187.9282,"EPHEMERIS_TYPE":0,"CLASSIFICATION_TYPE":"U","NORAD_CAT_ID":43911,"ELEMENT_SET_NO":999,"REV_AT_EPOCH":37760,"BSTAR":8.3785899e-5,"MEAN_MOTION_DOT":5.2e-7,"MEAN_MOTION_DDOT":0},{"OBJECT_NAME":"FENGYUN 1C DEB","OBJECT_ID":"1999-025ATR","EPOCH":"2026-03-09T11:15:08.582976","MEAN_MOTION":14.45385698,"ECCENTRICITY":0.01513125,"INCLINATION":98.2657,"RA_OF_ASC_NODE":65.7148,"ARG_OF_PERICENTER":5.8361,"MEAN_ANOMALY":146.8285,"EPHEMERIS_TYPE":0,"CLASSIFICATION_TYPE":"U","NORAD_CAT_ID":30755,"ELEMENT_SET_NO":999,"REV_AT_EPOCH":99697,"BSTAR":0.00095987722,"MEAN_MOTION_DOT":3.84e-5,"MEAN_MOTION_DDOT":0}]
